FLOCK 4G-8              
1 62613U 25009E   26068.72381419  .00013559  00000+0  50438-3 0  9996
2 62613  97.4045 151.2834 0003050 315.2538  44.8455 15.27623414 63721
STARLINK-32930          
1 63203U 25048W   26068.06567018  .00043347  00000+0  15742-2 0  9999
2 63203  43.0008  89.1017 0003608 284.5445  75.5006 15.27604161 56991
